OBJECT_NAME,OBJECT_ID,EPOCH,MEAN_MOTION,ECCENTRICITY,INCLINATION,RA_OF_ASC_NODE,ARG_OF_PERICENTER,MEAN_ANOMALY,EPHEMERIS_TYPE,CLASSIFICATION_TYPE,NORAD_CAT_ID,ELEMENT_SET_NO,REV_AT_EPOCH,BSTAR,MEAN_MOTION_DOT,MEAN_MOTION_DDOT
GALAXY 34 (G-34),2022-128B,2026-07-12T08:23:45.046752,1.00271629,.00013399,0.0229,13.4410,110.3523,163.3846,0,U,54027,999,1416,0,0,0
ANGOSAT 2,2022-131A,2026-07-11T11:57:13.517568,1.00271398,.00002383,0.0206,116.2041,125.0439,250.4629,0,U,54033,999,1372,0,.141E-5,0
EUTELSAT HOTBIRD 13F,2022-134A,2026-07-12T05:01:10.453728,1.00271661,.00018802,0.0552,285.8231,67.4520,25.1363,0,U,54048,999,1362,0,.89E-6,0
LDPE-2,2022-144A,2026-07-12T05:52:38.821728,1.00542770,.00023876,5.6710,63.4406,110.7785,70.6429,0,U,54219,999,1209,0,.42E-6,0
EUTELSAT HOTBIRD 13G,2022-146A,2026-07-11T20:27:47.277792,1.00272538,.00022491,0.0446,222.9067,322.6434,64.1524,0,U,54225,999,771,0,.91E-6,0
ZHONGXING-19,2022-148A,2026-07-12T08:04:42.898368,1.00270485,.00029309,0.0140,324.0328,174.9172,75.6437,0,U,54230,999,1363,0,-.8E-6,0
GALAXY 31 (G-31),2022-153A,2026-07-12T04:22:52.470336,1.00270088,.00009394,0.0257,60.8113,59.2464,114.7341,0,U,54243,999,738,0,0,0
GALAXY 32 (G-32),2022-153B,2026-07-12T02:48:47.403648,1.00266947,.00014086,0.0122,10.1560,44.3435,186.7093,0,U,54244,999,1339,0,-.171E-5,0
EUTELSAT 10B,2022-157A,2026-07-11T23:52:19.861248,1.00274592,.00020126,0.0583,94.8222,32.6270,170.5273,0,U,54259,999,1327,0,.72E-6,0
GALAXY 35 (G-35),2022-170A,2026-07-12T05:39:13.947840,1.00269145,.00018797,0.0213,53.9436,62.9809,164.9128,0,U,54741,999,1314,0,0,0
GALAXY 36 (G-36),2022-170B,2026-07-12T02:49:24.844224,1.00271080,.00023614,0.0287,111.1132,348.7092,143.5481,0,U,54742,999,1302,0,-.182E-5,0
METEOSAT-12 (MTG-I1),2022-170C,2026-07-12T04:57:18.324576,1.00267051,.00037737,0.7220,19.1495,82.7936,262.2075,0,U,54743,999,1322,0,-.6E-7,0
SHIJIAN-23 (SJ-23),2023-002A,2026-07-11T17:10:31.710720,1.00078207,.0003417,3.7776,78.0038,270.2862,330.4998,0,U,55131,999,1275,0,-.344E-5,0
APSTAR-6E,2023-005A,2026-07-11T15:17:32.134272,1.00272143,.00017428,0.0557,234.1096,330.9010,87.9369,0,U,55239,999,1893,0,-.312E-5,0
USA 342,2023-008A,2026-07-09T06:55:38.597952,1.00269378,.0000262,0.0052,352.2306,7.3445,55.4773,0,U,55263,999,1273,0,0,0
LDPE-3A,2023-008B,2026-07-12T03:57:30.066048,0.99150942,.00015072,2.4103,81.3553,79.7949,338.3022,0,U,55264,999,1206,0,-.289E-5,0
ELEKTRO-L 4,2023-016A,2026-07-11T17:38:16.020096,1.00272384,.0001249,0.1078,128.6577,48.2008,183.1363,0,U,55506,999,1258,0,-.53E-6,0
AMAZONAS NEXUS,2023-017A,2026-07-11T13:16:04.760832,1.00269216,.00044123,0.0349,41.3147,43.3627,342.7993,0,U,55508,999,728,0,-.277E-5,0
ZHONGXING-26,2023-023A,2026-07-11T15:51:46.357344,1.00274397,.00033642,0.0660,71.3982,31.9982,189.2021,0,U,55686,999,1247,0,-.349E-5,0
LUCH-5X (OLYMP-K 2),2023-031A,2026-07-11T16:23:20.565024,1.00270002,.0000943,0.0297,92.0561,160.2588,345.0840,0,U,55841,999,1218,0,.38E-6,0
GAOFEN-13 02,2023-036A,2026-07-12T04:50:38.704704,1.00274870,.00037165,1.0265,4.1653,336.3035,170.4882,0,U,55912,999,1234,0,-.216E-5,0
SES-18,2023-038A,2026-07-12T05:41:08.651616,1.00271281,.00007217,0.0481,264.1506,309.1391,59.0364,0,U,55970,999,1235,0,-.99E-6,0
SES-19,2023-038B,2026-07-12T05:52:38.821728,1.00272832,.00016084,0.0193,320.7980,161.9023,120.7116,0,U,55971,999,1234,0,.9E-6,0
INTELSAT 40E (IS-40E),2023-052A,2026-07-12T02:48:47.403648,1.00272829,.00022053,0.0204,53.8390,87.7224,99.6615,0,U,56174,999,1207,0,0,0
VIASAT-3 F1,2023-060A,2026-07-12T02:49:24.844224,1.00268311,.00009779,0.0167,18.6276,94.9154,129.8492,0,U,56370,999,1168,0,0,0
ARCTURUS,2023-060B,2026-07-12T02:32:21.864768,1.00595943,.00008257,2.8368,79.6324,133.1590,210.7204,0,U,56371,999,1170,0,-.319E-5,0
GS-1,2023-060C,2026-07-12T00:14:55.195584,1.00267656,.00034525,2.7876,79.5398,281.3860,22.0642,0,U,56372,999,778,0,-.222E-5,0
BEIDOU-3 G4,2023-066A,2026-07-12T08:27:38.755296,1.00273421,.00048676,0.4629,338.0719,188.0992,31.0340,0,U,56564,999,1164,0,-.278E-5,0
ARABSAT-7B (BADR-8),2023-075A,2026-07-12T05:04:47.607168,1.00270691,.00033558,0.0740,30.1370,0.2289,1.9358,0,U,56757,999,1136,0,.147E-5,0
NVS-01 (IRNSS-1J),2023-076A,2026-07-12T07:16:59.433024,1.00265965,.00035457,2.1091,243.2229,7.3934,278.3122,0,U,56759,999,1136,0,-.333E-5,0
NUSANTARA TIGA (SATRIA),2023-086A,2026-07-12T05:38:59.328960,1.00272492,.00026366,0.0339,9.8792,333.8503,177.1528,0,U,57045,999,1001,0,-.232E-5,0
